[{"OBJECT_NAME":"STARLINK-31818","OBJECT_ID":"2024-090M","EPOCH":"2026-03-09T08:04:56.864928","MEAN_MOTION":15.27574138,"ECCENTRICITY":0.0001345,"INCLINATION":43.002,"RA_OF_ASC_NODE":185.7023,"ARG_OF_PERICENTER":272.2238,"MEAN_ANOMALY":87.846,"EPHEMERIS_TYPE":0,"CLASSIFICATION_TYPE":"U","NORAD_CAT_ID":59741,"ELEMENT_SET_NO":999,"REV_AT_EPOCH":10338,"BSTAR":5.486458e-6,"MEAN_MOTION_DOT":-1.11e-6,"MEAN_MOTION_DDOT":0},{"OBJECT_NAME":"SCS-01 G","OBJECT_ID":"2025-100G","EPOCH":"2026-03-09T22:06:35.300160","MEAN_MOTION":15.25626619,"ECCENTRICITY":0.00115239,"INCLINATION":97.3761,"RA_OF_ASC_NODE":145.2582,"ARG_OF_PERICENTER":298.6971,"MEAN_ANOMALY":61.3108,"EPHEMERIS_TYPE":0,"CLASSIFICATION_TYPE":"U","NORAD_CAT_ID":63988,"ELEMENT_SET_NO":999,"REV_AT_EPOCH":4562,"BSTAR":0.00025501168,"MEAN_MOTION_DOT":6.423e-5,"MEAN_MOTION_DDOT":0}]
